ONEWEB-0159             
1 48062U 21025W   25248.59145881  .00000257  00000+0  66794-3 0  9990
2 48062  87.9026  16.7341 0001805 106.0284 254.1044 13.13469504216242
ONEWEB-0164             
1 48063U 21025X   25248.42048700  .00000303  00000+0  79458-3 0  9998
2 48063  87.9023  16.7771 0001671  95.1402 264.9918 13.13470500216201
ONEWEB-0167             
1 48064U 21025Y   25248.60075777  .00000076  00000+0  17252-3 0  9994
2 48064  87.9021  16.7754 0001089 118.5820 241.5419 13.13469008216217
ONEWEB-0166             
1 48065U 21025Z   25248.62361991 -.00000269  00000+0 -77026-3 0  9994
2 48065  87.9021  16.7208 0001905 101.5944 258.5399 13.13469456216298
ONEWEB-0151             
1 48066U 21025AA  25248.62531706 -.00000173  00000+0 -50761-3 0  9999
2 48066  87.9024  16.7455 0001579  99.0491 261.0817 13.13470901216236
ONEWEB-0170             
1 48067U 21025AB  25248.63377704  .00000037  00000+0  67458-4 0  9996
2 48067  87.9027  16.7502 0001429  84.2181 275.9111 13.13470384216190
ONEWEB-0168             
1 48068U 21025AC  25248.61853796 -.00000237  00000+0 -68277-3 0  9998
2 48068  87.9027  16.7347 0001753 104.6607 255.4717 13.13470638216207
ONEWEB-0173             
1 48069U 21025AD  25248.61007616 -.00000231  00000+0 -66880-3 0  9993
2 48069  87.9026  16.7440 0001533 112.7452 247.3840 13.13470601216448
